[{"OBJECT_NAME":"STARLINK-36817","OBJECT_ID":"2026-035D","EPOCH":"2026-03-19T01:55:47.775648","MEAN_MOTION":15.80613293,"ECCENTRICITY":0.00113073,"INCLINATION":97.2883,"RA_OF_ASC_NODE":10.9652,"ARG_OF_PERICENTER":111.1576,"MEAN_ANOMALY":249.0902,"EPHEMERIS_TYPE":0,"CLASSIFICATION_TYPE":"U","NORAD_CAT_ID":67882,"ELEMENT_SET_NO":999,"REV_AT_EPOCH":532,"BSTAR":0.0016836476,"MEAN_MOTION_DOT":0.00333006,"MEAN_MOTION_DDOT":0},{"OBJECT_NAME":"STARLINK-36856","OBJECT_ID":"2026-035E","EPOCH":"2026-03-19T06:00:02.000160","MEAN_MOTION":15.76759383,"ECCENTRICITY":0.00017683,"INCLINATION":97.2862,"RA_OF_ASC_NODE":11.1444,"ARG_OF_PERICENTER":97.8052,"MEAN_ANOMALY":136.0784,"EPHEMERIS_TYPE":0,"CLASSIFICATION_TYPE":"U","NORAD_CAT_ID":67883,"ELEMENT_SET_NO":999,"REV_AT_EPOCH":529,"BSTAR":-0.01248817,"MEAN_MOTION_DOT":-0.017589,"MEAN_MOTION_DDOT":0},{"OBJECT_NAME":"STARLINK-36842","OBJECT_ID":"2026-035F","EPOCH":"2026-03-19T06:51:08.874432","MEAN_MOTION":15.7528937,"ECCENTRICITY":0.00012415,"INCLINATION":97.2873,"RA_OF_ASC_NODE":11.1485,"ARG_OF_PERICENTER":92.8828,"MEAN_ANOMALY":267.258,"EPHEMERIS_TYPE":0,"CLASSIFICATION_TYPE":"U","NORAD_CAT_ID":67884,"ELEMENT_SET_NO":999,"REV_AT_EPOCH":535,"BSTAR":0.0015748509,"MEAN_MOTION_DOT":0.00242606,"MEAN_MOTION_DDOT":0},{"OBJECT_NAME":"STARLINK-36826","OBJECT_ID":"2026-035G","EPOCH":"2026-03-19T06:00:02.000160","MEAN_MOTION":15.75193852,"ECCENTRICITY":0.00011397,"INCLINATION":97.2864,"RA_OF_ASC_NODE":11.1332,"ARG_OF_PERICENTER":99.8723,"MEAN_ANOMALY":109.1176,"EPHEMERIS_TYPE":0,"CLASSIFICATION_TYPE":"U","NORAD_CAT_ID":67885,"ELEMENT_SET_NO":999,"REV_AT_EPOCH":529,"BSTAR":4.973525e-5,"MEAN_MOTION_DOT":7.296e-5,"MEAN_MOTION_DDOT":0},{"OBJECT_NAME":"STARLINK-36390","OBJECT_ID":"2026-035H","EPOCH":"2026-03-19T06:48:05.860224","MEAN_MOTION":15.75281045,"ECCENTRICITY":9.869e-5,"INCLINATION":97.2871,"RA_OF_ASC_NODE":11.1509,"ARG_OF_PERICENTER":102.4596,"MEAN_ANOMALY":257.678,"EPHEMERIS_TYPE":0,"CLASSIFICATION_TYPE":"U","NORAD_CAT_ID":67886,"ELEMENT_SET_NO":999,"REV_AT_EPOCH":535,"BSTAR":0.0014929745,"MEAN_MOTION_DOT":0.00229549,"MEAN_MOTION_DDOT":0},{"OBJECT_NAME":"STARLINK-36368","OBJECT_ID":"2026-035J","EPOCH":"2026-03-19T06:24:50.616864","MEAN_MOTION":15.80931091,"ECCENTRICITY":3.101e-5,"INCLINATION":97.2887,"RA_OF_ASC_NODE":11.1701,"ARG_OF_PERICENTER":338.9131,"MEAN_ANOMALY":21.2124,"EPHEMERIS_TYPE":0,"CLASSIFICATION_TYPE":"U","NORAD_CAT_ID":67887,"ELEMENT_SET_NO":999,"REV_AT_EPOCH":535,"BSTAR":0.0021178142,"MEAN_MOTION_DOT":0.00428388,"MEAN_MOTION_DDOT":0},{"OBJECT_NAME":"STARLINK-36801","OBJECT_ID":"2026-035K","EPOCH":"2026-03-19T06:23:46.237632","MEAN_MOTION":15.80862126,"ECCENTRICITY":0.00018487,"INCLINATION":97.2889,"RA_OF_ASC_NODE":11.1708,"ARG_OF_PERICENTER":91.3134,"MEAN_ANOMALY":268.8346,"EPHEMERIS_TYPE":0,"CLASSIFICATION_TYPE":"U","NORAD_CAT_ID":67888,"ELEMENT_SET_NO":999,"REV_AT_EPOCH":535,"BSTAR":0.00084841509,"MEAN_MOTION_DOT":0.00165849,"MEAN_MOTION_DDOT":0},{"OBJECT_NAME":"STARLINK-36372","OBJECT_ID":"2026-035L","EPOCH":"2026-03-19T06:00:02.000160","MEAN_MOTION":15.76086295,"ECCENTRICITY":0.00019009,"INCLINATION":97.2861,"RA_OF_ASC_NODE":11.1542,"ARG_OF_PERICENTER":98.3164,"MEAN_ANOMALY":168.1463,"EPHEMERIS_TYPE":0,"CLASSIFICATION_TYPE":"U","NORAD_CAT_ID":67889,"ELEMENT_SET_NO":999,"REV_AT_EPOCH":529,"BSTAR":-0.0084428911,"MEAN_MOTION_DOT":-0.01166966,"MEAN_MOTION_DDOT":0},{"OBJECT_NAME":"STARLINK-36363","OBJECT_ID":"2026-035M","EPOCH":"2026-03-19T06:42:59.168736","MEAN_MOTION":15.75409395,"ECCENTRICITY":0.00019484,"INCLINATION":97.288,"RA_OF_ASC_NODE":11.1555,"ARG_OF_PERICENTER":103.1699,"MEAN_ANOMALY":256.9784,"EPHEMERIS_TYPE":0,"CLASSIFICATION_TYPE":"U","NORAD_CAT_ID":67890,"ELEMENT_SET_NO":999,"REV_AT_EPOCH":535,"BSTAR":0.0023519837,"MEAN_MOTION_DOT":0.003698,"MEAN_MOTION_DDOT":0},{"OBJECT_NAME":"STARLINK-36816","OBJECT_ID":"2026-035N","EPOCH":"2026-03-19T01:34:04.433376","MEAN_MOTION":15.80932893,"ECCENTRICITY":0.00017134,"INCLINATION":97.2906,"RA_OF_ASC_NODE":10.9815,"ARG_OF_PERICENTER":101.2508,"MEAN_ANOMALY":258.8953,"EPHEMERIS_TYPE":0,"CLASSIFICATION_TYPE":"U","NORAD_CAT_ID":67891,"ELEMENT_SET_NO":999,"REV_AT_EPOCH":532,"BSTAR":0.0021910939,"MEAN_MOTION_DOT":0.00444002,"MEAN_MOTION_DDOT":0},{"OBJECT_NAME":"STARLINK-36813","OBJECT_ID":"2026-035P","EPOCH":"2026-03-19T06:14:02.650560","MEAN_MOTION":15.81007485,"ECCENTRICITY":0.00010122,"INCLINATION":97.2889,"RA_OF_ASC_NODE":11.1742,"ARG_OF_PERICENTER":5.2381,"MEAN_ANOMALY":354.8897,"EPHEMERIS_TYPE":0,"CLASSIFICATION_TYPE":"U","NORAD_CAT_ID":67892,"ELEMENT_SET_NO":999,"REV_AT_EPOCH":535,"BSTAR":0.0023592003,"MEAN_MOTION_DOT":0.00481853,"MEAN_MOTION_DDOT":0},{"OBJECT_NAME":"STARLINK-36803","OBJECT_ID":"2026-035Q","EPOCH":"2026-03-19T06:20:31.238016","MEAN_MOTION":15.80881606,"ECCENTRICITY":7.157e-5,"INCLINATION":97.2891,"RA_OF_ASC_NODE":11.1726,"ARG_OF_PERICENTER":88.5669,"MEAN_ANOMALY":271.5681,"EPHEMERIS_TYPE":0,"CLASSIFICATION_TYPE":"U","NORAD_CAT_ID":67893,"ELEMENT_SET_NO":999,"REV_AT_EPOCH":535,"BSTAR":0.0018262242,"MEAN_MOTION_DOT":0.00365857,"MEAN_MOTION_DDOT":0},{"OBJECT_NAME":"STARLINK-36846","OBJECT_ID":"2026-035R","EPOCH":"2026-03-19T06:45:32.527872","MEAN_MOTION":15.75316911,"ECCENTRICITY":0.00011372,"INCLINATION":97.2887,"RA_OF_ASC_NODE":11.1508,"ARG_OF_PERICENTER":72.6609,"MEAN_ANOMALY":287.4781,"EPHEMERIS_TYPE":0,"CLASSIFICATION_TYPE":"U","NORAD_CAT_ID":67894,"ELEMENT_SET_NO":999,"REV_AT_EPOCH":535,"BSTAR":0.0017853862,"MEAN_MOTION_DOT":0.00276492,"MEAN_MOTION_DDOT":0},{"OBJECT_NAME":"STARLINK-36866","OBJECT_ID":"2026-035S","EPOCH":"2026-03-19T06:00:02.000160","MEAN_MOTION":15.75191401,"ECCENTRICITY":0.00014854,"INCLINATION":97.2871,"RA_OF_ASC_NODE":11.1371,"ARG_OF_PERICENTER":106.3962,"MEAN_ANOMALY":118.5919,"EPHEMERIS_TYPE":0,"CLASSIFICATION_TYPE":"U","NORAD_CAT_ID":67895,"ELEMENT_SET_NO":999,"REV_AT_EPOCH":529,"BSTAR":5.2049797e-5,"MEAN_MOTION_DOT":7.641e-5,"MEAN_MOTION_DDOT":0},{"OBJECT_NAME":"STARLINK-36877","OBJECT_ID":"2026-035T","EPOCH":"2026-03-19T06:19:26.164128","MEAN_MOTION":15.80891621,"ECCENTRICITY":5.147e-5,"INCLINATION":97.2895,"RA_OF_ASC_NODE":11.1732,"ARG_OF_PERICENTER":82.8356,"MEAN_ANOMALY":277.2971,"EPHEMERIS_TYPE":0,"CLASSIFICATION_TYPE":"U","NORAD_CAT_ID":67896,"ELEMENT_SET_NO":999,"REV_AT_EPOCH":535,"BSTAR":0.0013349008,"MEAN_MOTION_DOT":0.00264375,"MEAN_MOTION_DDOT":0},{"OBJECT_NAME":"STARLINK-36870","OBJECT_ID":"2026-035U","EPOCH":"2026-03-18T18:06:57.482208","MEAN_MOTION":15.81047299,"ECCENTRICITY":0.0002174,"INCLINATION":97.2895,"RA_OF_ASC_NODE":10.6385,"ARG_OF_PERICENTER":123.9214,"MEAN_ANOMALY":236.2262,"EPHEMERIS_TYPE":0,"CLASSIFICATION_TYPE":"U","NORAD_CAT_ID":67897,"ELEMENT_SET_NO":999,"REV_AT_EPOCH":527,"BSTAR":0.0024641253,"MEAN_MOTION_DOT":0.00505555,"MEAN_MOTION_DDOT":0}]
